GLOBALSTAR M075         
1 37192U 10054E   25358.21427079 -.00000088  00000+0  85706-4 0  9993
2 37192  52.0022 322.9423 0000480 109.7567 352.3949 12.62261317699849
GLOBALSTAR M073         
1 37193U 10054F   25365.35660012 -.00000060  00000+0  24242-3 0  9990
2 37193  52.0034 215.1728 0001183  69.7757 101.7981 12.62268648702730
GLOBALSTAR M083         
1 37739U 11033A   25365.49783425 -.00000085  00000+0  10246-3 0  9999
2 37739  51.9834 163.1985 0001028  85.9192 309.6775 12.62266229671772
GLOBALSTAR M088         
1 37740U 11033B   25365.40207249 -.00000097  00000+0  39841-4 0  9993
2 37740  52.0228  69.5115 0000593 132.6418 307.0248 12.62271205667305
GLOBALSTAR M091         
1 37741U 11033C   25365.50943600 -.00000094  00000+0  56125-4 0  9994
2 37741  52.0012  32.3993 0000186 134.0090  12.9141 12.62268303668107
GLOBALSTAR M085         
1 37742U 11033D   25365.33780809 -.00000089  00000+0  81414-4 0  9999
2 37742  52.0150 344.0669 0000284  16.5039 130.7635 12.62267581668597
GLOBALSTAR M081         
1 37743U 11033E   25351.59018587 -.00000087  00000+0  92331-4 0  9998
2 37743  51.9980  28.5496 0000222  94.7932  71.3857 12.62270971667009
GLOBALSTAR M089         
1 37744U 11033F   25365.24533250 -.00000087  00000+0  93008-4 0  9997
2 37744  51.9949 301.1667 0000813  72.3507  75.4108 12.62262916669579
